[{"OBJECT_NAME":"ONEWEB-0424","OBJECT_ID":"2021-132AE","EPOCH":"2026-03-09T17:27:51.847488","MEAN_MOTION":13.18686575,"ECCENTRICITY":0.00021243,"INCLINATION":87.9254,"RA_OF_ASC_NODE":355.2057,"ARG_OF_PERICENTER":73.9956,"MEAN_ANOMALY":286.141,"EPHEMERIS_TYPE":0,"CLASSIFICATION_TYPE":"U","NORAD_CAT_ID":50497,"ELEMENT_SET_NO":999,"REV_AT_EPOCH":20853,"BSTAR":-3.9482864e-5,"MEAN_MOTION_DOT":-3.0e-8,"MEAN_MOTION_DDOT":0},{"OBJECT_NAME":"COSMOS 2251 DEB","OBJECT_ID":"1993-036R","EPOCH":"2026-03-09T12:32:28.407264","MEAN_MOTION":13.58550522,"ECCENTRICITY":0.03685766,"INCLINATION":74.0663,"RA_OF_ASC_NODE":79.7861,"ARG_OF_PERICENTER":218.6136,"MEAN_ANOMALY":267.7321,"EPHEMERIS_TYPE":0,"CLASSIFICATION_TYPE":"U","NORAD_CAT_ID":33768,"ELEMENT_SET_NO":999,"REV_AT_EPOCH":84474,"BSTAR":0.0003896249,"MEAN_MOTION_DOT":4.2e-6,"MEAN_MOTION_DDOT":0}]
